QIANFAN-18              
1 60396U 24140T   26066.14602498  .00000056  00000+0  67539-4 0  9993
2 60396  88.9717 290.2416 0013016 310.2383  49.7628 13.51003776 78926
QIANFAN-19              
1 61552U 24185A   26066.12973764  .00000606  00000+0  30947-3 0  9995
2 61552  88.9761  68.2509 0008492  47.1371 313.0528 14.14388698 81593
QIANFAN-20              
1 61553U 24185B   26066.13351816  .00000594  00000+0  33575-3 0  9991
2 61553  88.9758  68.6595 0007867  79.2282 280.9787 14.08935127 81374
QIANFAN-21              
1 61554U 24185C   26066.15273584  .00000728  00000+0  31830-3 0  9990
2 61554  88.9679  67.0717 0013026  88.7599 271.5085 14.22729966 81977
QIANFAN-22              
1 61555U 24185D   26066.09342802  .00000303  00000+0  25005-3 0  9990
2 61555  88.9742  69.9863 0008628  96.5728 263.6426 13.86339597 80623
QIANFAN-23              
1 61556U 24185E   26066.12744216  .00000669  00000+0  32989-3 0  9994
2 61556  88.9753  68.0212 0009452  54.9853 305.2221 14.16394005 81690
QIANFAN-24              
1 61557U 24185F   26066.15453325  .00000915  00000+0  39270-3 0  9990
2 61557  88.9737  67.2850 0010449  34.7158 325.4715 14.23934727 82034
QIANFAN-25              
1 61558U 24185G   26066.13136343  .00000526  00000+0  31230-3 0  9993
2 61558  88.9750  68.6186 0011899  61.5000 298.7378 14.05996488 81365
QIANFAN-26              
1 61559U 24185H   26066.13506486  .00000261  00000+0  24743-3 0  9990
2 61559  88.9747  70.6242 0007740 109.2560 250.9444 13.77862085 80297
QIANFAN-27              
1 61560U 24185J   26066.15220016  .00000621  00000+0  24710-3 0  9990
2 61560  88.9751  67.0275 0008500  28.0688 332.0962 14.27444845 82200
QIANFAN-28              
1 61561U 24185K   26066.09083640  .00001048  00000+0  41518-3 0  9993
2 61561  88.9765  67.0419 0008104  29.4418 330.7232 14.28215391 82211
QIANFAN-29              
1 61562U 24185L   26066.09536353  .00000185  00000+0  26756-3 0  9996
2 61562  88.9719  72.5764 0010496 155.7322 204.4325 13.51044186 79188
QIANFAN-30              
1 61563U 24185M   26066.13413918  .00000185  00000+0  27165-3 0  9998
2 61563  88.9739  72.1300 0008787 140.1266 220.0531 13.50019199 79456
QIANFAN-31              
1 61564U 24185N   26066.12272116  .00000218  00000+0  28435-3 0  9999
2 61564  88.9724  71.7988 0008448 131.8031 228.3847 13.58003628 79616
QIANFAN-32              
1 61565U 24185P   26066.13001920  .00000160  00000+0  22986-3 0  9995
2 61565  88.9783  72.2905 0009857 168.4391 191.6989 13.50764382 79439
QIANFAN-33              
1 61566U 24185Q   26066.16193218  .00000464  00000+0  32548-3 0  9993
2 61566  88.9739  69.3768 0009254  69.8492 290.3680 13.96624271 80947
QIANFAN-34              
1 61567U 24185R   26066.13775563  .00000523  00000+0  33152-3 0  9998
2 61567  88.9715  68.8310 0008284  73.3504 286.8585 14.02384424 81187
