[{"OBJECT_NAME":"QIANFAN-18","OBJECT_ID":"2024-140T","EPOCH":"2026-03-07T03:30:16.558272","MEAN_MOTION":13.51003776,"ECCENTRICITY":0.0013016,"INCLINATION":88.9717,"RA_OF_ASC_NODE":290.2416,"ARG_OF_PERICENTER":310.2383,"MEAN_ANOMALY":49.7628,"EPHEMERIS_TYPE":0,"CLASSIFICATION_TYPE":"U","NORAD_CAT_ID":60396,"ELEMENT_SET_NO":999,"REV_AT_EPOCH":7892,"BSTAR":6.7539e-5,"MEAN_MOTION_DOT":5.6e-7,"MEAN_MOTION_DDOT":0},{"OBJECT_NAME":"QIANFAN-19","OBJECT_ID":"2024-185A","EPOCH":"2026-03-07T03:06:49.332096","MEAN_MOTION":14.14388698,"ECCENTRICITY":0.0008492,"INCLINATION":88.9761,"RA_OF_ASC_NODE":68.2509,"ARG_OF_PERICENTER":47.1371,"MEAN_ANOMALY":313.0528,"EPHEMERIS_TYPE":0,"CLASSIFICATION_TYPE":"U","NORAD_CAT_ID":61552,"ELEMENT_SET_NO":999,"REV_AT_EPOCH":8159,"BSTAR":0.00030947,"MEAN_MOTION_DOT":6.06e-6,"MEAN_MOTION_DDOT":0},{"OBJECT_NAME":"QIANFAN-20","OBJECT_ID":"2024-185B","EPOCH":"2026-03-07T03:12:15.969024","MEAN_MOTION":14.08935127,"ECCENTRICITY":0.0007867,"INCLINATION":88.9758,"RA_OF_ASC_NODE":68.6595,"ARG_OF_PERICENTER":79.2282,"MEAN_ANOMALY":280.9787,"EPHEMERIS_TYPE":0,"CLASSIFICATION_TYPE":"U","NORAD_CAT_ID":61553,"ELEMENT_SET_NO":999,"REV_AT_EPOCH":8137,"BSTAR":0.00033575,"MEAN_MOTION_DOT":5.94e-6,"MEAN_MOTION_DDOT":0},{"OBJECT_NAME":"QIANFAN-21","OBJECT_ID":"2024-185C","EPOCH":"2026-03-07T03:39:56.376576","MEAN_MOTION":14.22729966,"ECCENTRICITY":0.0013026,"INCLINATION":88.9679,"RA_OF_ASC_NODE":67.0717,"ARG_OF_PERICENTER":88.7599,"MEAN_ANOMALY":271.5085,"EPHEMERIS_TYPE":0,"CLASSIFICATION_TYPE":"U","NORAD_CAT_ID":61554,"ELEMENT_SET_NO":999,"REV_AT_EPOCH":8197,"BSTAR":0.0003183,"MEAN_MOTION_DOT":7.28e-6,"MEAN_MOTION_DDOT":0},{"OBJECT_NAME":"QIANFAN-22","OBJECT_ID":"2024-185D","EPOCH":"2026-03-07T02:14:32.180928","MEAN_MOTION":13.86339597,"ECCENTRICITY":0.0008628,"INCLINATION":88.9742,"RA_OF_ASC_NODE":69.9863,"ARG_OF_PERICENTER":96.5728,"MEAN_ANOMALY":263.6426,"EPHEMERIS_TYPE":0,"CLASSIFICATION_TYPE":"U","NORAD_CAT_ID":61555,"ELEMENT_SET_NO":999,"REV_AT_EPOCH":8062,"BSTAR":0.00025005,"MEAN_MOTION_DOT":3.03e-6,"MEAN_MOTION_DDOT":0},{"OBJECT_NAME":"QIANFAN-23","OBJECT_ID":"2024-185E","EPOCH":"2026-03-07T03:03:31.002624","MEAN_MOTION":14.16394005,"ECCENTRICITY":0.0009452,"INCLINATION":88.9753,"RA_OF_ASC_NODE":68.0212,"ARG_OF_PERICENTER":54.9853,"MEAN_ANOMALY":305.2221,"EPHEMERIS_TYPE":0,"CLASSIFICATION_TYPE":"U","NORAD_CAT_ID":61556,"ELEMENT_SET_NO":999,"REV_AT_EPOCH":8169,"BSTAR":0.00032989,"MEAN_MOTION_DOT":6.69e-6,"MEAN_MOTION_DDOT":0},{"OBJECT_NAME":"QIANFAN-24","OBJECT_ID":"2024-185F","EPOCH":"2026-03-07T03:42:31.672800","MEAN_MOTION":14.23934727,"ECCENTRICITY":0.0010449,"INCLINATION":88.9737,"RA_OF_ASC_NODE":67.285,"ARG_OF_PERICENTER":34.7158,"MEAN_ANOMALY":325.4715,"EPHEMERIS_TYPE":0,"CLASSIFICATION_TYPE":"U","NORAD_CAT_ID":61557,"ELEMENT_SET_NO":999,"REV_AT_EPOCH":8203,"BSTAR":0.0003927,"MEAN_MOTION_DOT":9.15e-6,"MEAN_MOTION_DDOT":0},{"OBJECT_NAME":"QIANFAN-25","OBJECT_ID":"2024-185G","EPOCH":"2026-03-07T03:09:09.800352","MEAN_MOTION":14.05996488,"ECCENTRICITY":0.0011899,"INCLINATION":88.975,"RA_OF_ASC_NODE":68.6186,"ARG_OF_PERICENTER":61.5,"MEAN_ANOMALY":298.7378,"EPHEMERIS_TYPE":0,"CLASSIFICATION_TYPE":"U","NORAD_CAT_ID":61558,"ELEMENT_SET_NO":999,"REV_AT_EPOCH":8136,"BSTAR":0.0003123,"MEAN_MOTION_DOT":5.26e-6,"MEAN_MOTION_DDOT":0},{"OBJECT_NAME":"QIANFAN-26","OBJECT_ID":"2024-185H","EPOCH":"2026-03-07T03:14:29.603904","MEAN_MOTION":13.77862085,"ECCENTRICITY":0.000774,"INCLINATION":88.9747,"RA_OF_ASC_NODE":70.6242,"ARG_OF_PERICENTER":109.256,"MEAN_ANOMALY":250.9444,"EPHEMERIS_TYPE":0,"CLASSIFICATION_TYPE":"U","NORAD_CAT_ID":61559,"ELEMENT_SET_NO":999,"REV_AT_EPOCH":8029,"BSTAR":0.00024743,"MEAN_MOTION_DOT":2.61e-6,"MEAN_MOTION_DDOT":0},{"OBJECT_NAME":"QIANFAN-27","OBJECT_ID":"2024-185J","EPOCH":"2026-03-07T03:39:10.093824","MEAN_MOTION":14.27444845,"ECCENTRICITY":0.00085,"INCLINATION":88.9751,"RA_OF_ASC_NODE":67.0275,"ARG_OF_PERICENTER":28.0688,"MEAN_ANOMALY":332.0962,"EPHEMERIS_TYPE":0,"CLASSIFICATION_TYPE":"U","NORAD_CAT_ID":61560,"ELEMENT_SET_NO":999,"REV_AT_EPOCH":8220,"BSTAR":0.0002471,"MEAN_MOTION_DOT":6.21e-6,"MEAN_MOTION_DDOT":0},{"OBJECT_NAME":"QIANFAN-28","OBJECT_ID":"2024-185K","EPOCH":"2026-03-07T02:10:48.264960","MEAN_MOTION":14.28215391,"ECCENTRICITY":0.0008104,"INCLINATION":88.9765,"RA_OF_ASC_NODE":67.0419,"ARG_OF_PERICENTER":29.4418,"MEAN_ANOMALY":330.7232,"EPHEMERIS_TYPE":0,"CLASSIFICATION_TYPE":"U","NORAD_CAT_ID":61561,"ELEMENT_SET_NO":999,"REV_AT_EPOCH":8221,"BSTAR":0.00041518,"MEAN_MOTION_DOT":1.048e-5,"MEAN_MOTION_DDOT":0},{"OBJECT_NAME":"QIANFAN-29","OBJECT_ID":"2024-185L","EPOCH":"2026-03-07T02:17:19.408992","MEAN_MOTION":13.51044186,"ECCENTRICITY":0.0010496,"INCLINATION":88.9719,"RA_OF_ASC_NODE":72.5764,"ARG_OF_PERICENTER":155.7322,"MEAN_ANOMALY":204.4325,"EPHEMERIS_TYPE":0,"CLASSIFICATION_TYPE":"U","NORAD_CAT_ID":61562,"ELEMENT_SET_NO":999,"REV_AT_EPOCH":7918,"BSTAR":0.00026756,"MEAN_MOTION_DOT":1.85e-6,"MEAN_MOTION_DDOT":0},{"OBJECT_NAME":"QIANFAN-30","OBJECT_ID":"2024-185M","EPOCH":"2026-03-07T03:13:09.625152","MEAN_MOTION":13.50019199,"ECCENTRICITY":0.0008787,"INCLINATION":88.9739,"RA_OF_ASC_NODE":72.13,"ARG_OF_PERICENTER":140.1266,"MEAN_ANOMALY":220.0531,"EPHEMERIS_TYPE":0,"CLASSIFICATION_TYPE":"U","NORAD_CAT_ID":61563,"ELEMENT_SET_NO":999,"REV_AT_EPOCH":7945,"BSTAR":0.00027165,"MEAN_MOTION_DOT":1.85e-6,"MEAN_MOTION_DDOT":0},{"OBJECT_NAME":"QIANFAN-31","OBJECT_ID":"2024-185N","EPOCH":"2026-03-07T02:56:43.108224","MEAN_MOTION":13.58003628,"ECCENTRICITY":0.0008448,"INCLINATION":88.9724,"RA_OF_ASC_NODE":71.7988,"ARG_OF_PERICENTER":131.8031,"MEAN_ANOMALY":228.3847,"EPHEMERIS_TYPE":0,"CLASSIFICATION_TYPE":"U","NORAD_CAT_ID":61564,"ELEMENT_SET_NO":999,"REV_AT_EPOCH":7961,"BSTAR":0.00028435,"MEAN_MOTION_DOT":2.18e-6,"MEAN_MOTION_DDOT":0},{"OBJECT_NAME":"QIANFAN-32","OBJECT_ID":"2024-185P","EPOCH":"2026-03-07T03:07:13.658880","MEAN_MOTION":13.50764382,"ECCENTRICITY":0.0009857,"INCLINATION":88.9783,"RA_OF_ASC_NODE":72.2905,"ARG_OF_PERICENTER":168.4391,"MEAN_ANOMALY":191.6989,"EPHEMERIS_TYPE":0,"CLASSIFICATION_TYPE":"U","NORAD_CAT_ID":61565,"ELEMENT_SET_NO":999,"REV_AT_EPOCH":7943,"BSTAR":0.00022986,"MEAN_MOTION_DOT":1.6e-6,"MEAN_MOTION_DDOT":0},{"OBJECT_NAME":"QIANFAN-33","OBJECT_ID":"2024-185Q","EPOCH":"2026-03-07T03:53:10.940352","MEAN_MOTION":13.96624271,"ECCENTRICITY":0.0009254,"INCLINATION":88.9739,"RA_OF_ASC_NODE":69.3768,"ARG_OF_PERICENTER":69.8492,"MEAN_ANOMALY":290.368,"EPHEMERIS_TYPE":0,"CLASSIFICATION_TYPE":"U","NORAD_CAT_ID":61566,"ELEMENT_SET_NO":999,"REV_AT_EPOCH":8094,"BSTAR":0.00032548,"MEAN_MOTION_DOT":4.64e-6,"MEAN_MOTION_DDOT":0},{"OBJECT_NAME":"QIANFAN-34","OBJECT_ID":"2024-185R","EPOCH":"2026-03-07T03:18:22.086432","MEAN_MOTION":14.02384424,"ECCENTRICITY":0.0008284,"INCLINATION":88.9715,"RA_OF_ASC_NODE":68.831,"ARG_OF_PERICENTER":73.3504,"MEAN_ANOMALY":286.8585,"EPHEMERIS_TYPE":0,"CLASSIFICATION_TYPE":"U","NORAD_CAT_ID":61567,"ELEMENT_SET_NO":999,"REV_AT_EPOCH":8118,"BSTAR":0.00033152,"MEAN_MOTION_DOT":5.23e-6,"MEAN_MOTION_DDOT":0}]
